$$SOE
2461295.500000000, A.D. 2026-Sep-12 00:00:00.0000, 2.021552796191091E+08, 2.685617385514006E+08, -3.621227433993638E+06,
2461302.500000000, A.D. 2026-Sep-19 00:00:00.0000, 1.909751779714200E+08, 2.739114752462034E+08, -4.049310998512059E+06,
2461309.500000000, A.D. 2026-Sep-26 00:00:00.0000, 1.795461604547071E+08, 2.789041326691813E+08, -4.472113632290497E+06,
2461316.500000000, A.D. 2026-Oct-03 00:00:00.0000, 1.678784164136173E+08, 2.835258898018294E+08, -4.888966769981086E+06,
2461323.500000000, A.D. 2026-Oct-10 00:00:00.0000, 1.559829741672203E+08, 2.877630242764347E+08, -5.299185314903751E+06,
2461330.500000000, A.D. 2026-Oct-17 00:00:00.0000, 1.438717277812521E+08, 2.916019641560112E+08, -5.702068612660602E+06,
2461337.500000000, A.D. 2026-Oct-24 00:00:00.0000, 1.315574612546216E+08, 2.950293442629972E+08, -6.096901636540085E+06,
2461344.500000000, A.D. 2026-Oct-31 00:00:00.0000, 1.190538696299588E+08, 2.980320670287076E+08, -6.482956414007425E+06,
2461351.500000000, A.D. 2026-Nov-07 00:00:00.0000, 1.063755767350575E+08, 3.005973679144801E+08, -6.859493733411372E+06,
2461358.500000000, A.D. 2026-Nov-14 00:00:00.0000, 9.353814908938259E+07, 3.027128861956397E+08, -7.225765090344921E+06,
2461365.500000000, A.D. 2026-Nov-21 00:00:00.0000, 8.055810347129895E+07, 3.043667415964637E+08, -7.581014664126337E+06,
2461372.500000000, A.D. 2026-Nov-28 00:00:00.0000, 6.745290642075093E+07, 3.055476134579707E+08, -7.924481485931978E+06,
2461379.500000000, A.D. 2026-Dec-05 00:00:00.0000, 5.424096854929526E+07, 3.062448213792329E+08, -8.255402186996967E+06,
2461386.500000000, A.D. 2026-Dec-12 00:00:00.0000, 4.094163308797705E+07, 3.064484099304361E+08, -8.573014088249490E+06,
2461393.500000000, A.D. 2026-Dec-19 00:00:00.0000, 2.757515606941903E+07, 3.061492368022890E+08, -8.876558452790618E+06,
2461400.500000000, A.D. 2026-Dec-26 00:00:00.0000, 1.416267732866148E+07, 3.053390627595053E+08, -9.165283949566349E+06,
2461407.500000000, A.D. 2027-Jan-02 00:00:00.0000, 7.261819944535318E+05, 3.040106423117279E+08, -9.438450355296612E+06,
2461414.500000000, A.D. 2027-Jan-09 00:00:00.0000, -1.271154792915342E+07, 3.021578140930082E+08, -9.695332484240875E+06,
2461421.500000000, A.D. 2027-Jan-16 00:00:00.0000, -2.612699226164084E+07, 2.997755898065675E+08, -9.935224322393775E+06,
2461428.500000000, A.D. 2027-Jan-23 00:00:00.0000, -3.949596184490106E+07, 2.968602404335930E+08, -1.015744334097642E+07,
2461435.500000000, A.D. 2027-Jan-30 00:00:00.0000, -5.279367815161061E+07, 2.934093783017590E+08, -1.036133497088464E+07,
2461442.500000000, A.D. 2027-Feb-06 00:00:00.0000, -6.599486278452917E+07, 2.894220339223781E+08, -1.054627720289069E+07,
2461449.500000000, A.D. 2027-Feb-13 00:00:00.0000, -7.907383702369015E+07, 2.848987273418219E+08, -1.071168511943750E+07,
2461456.500000000, A.D. 2027-Feb-20 00:00:00.0000, -9.200463324842638E+07, 2.798415317323914E+08, -1.085701514885993E+07,
2461463.500000000, A.D. 2027-Feb-27 00:00:00.0000, -1.047611160578956E+08, 2.742541245308657E+08, -1.098176936760817E+07,
2461470.500000000, A.D. 2027-Mar-06 00:00:00.0000, -1.173171090705395E+08, 2.681418266406863E+08, -1.108549990067692E+07,
2461477.500000000, A.D. 2027-Mar-13 00:00:00.0000, -1.296465277604653E+08, 2.615116304805272E+08, -1.116781303926983E+07,
2461484.500000000, A.D. 2027-Mar-20 00:00:00.0000, -1.417235179806516E+08, 2.543722149252609E+08, -1.122837297190705E+07,
2461491.500000000, A.D. 2027-Mar-27 00:00:00.0000, -1.535225982939591E+08, 2.467339456651049E+08, -1.126690512385473E+07,
2461498.500000000, A.D. 2027-Apr-03 00:00:00.0000, -1.650188040650238E+08, 2.386088602546105E+08, -1.128319906275347E+07,
2461505.500000000, A.D. 2027-Apr-10 00:00:00.0000, -1.761878312783561E+08, 2.300106374717802E+08, -1.127711091535948E+07,
2461512.500000000, A.D. 2027-Apr-17 00:00:00.0000, -1.870061780053811E+08, 2.209545508730949E+08, -1.124856524729583E+07,
2461519.500000000, A.D. 2027-Apr-24 00:00:00.0000, -1.974512813579761E+08, 2.114574067017629E+08, -1.119755637607464E+07,
2461526.500000000, A.D. 2027-May-01 00:00:00.0000, -2.075016475747725E+08, 2.015374667215689E+08, -1.112414911118238E+07,
2461533.500000000, A.D. 2027-May-08 00:00:00.0000, -2.171369729669918E+08, 1.912143575882502E+08, -1.102847886871582E+07,
2461540.500000000, A.D. 2027-May-15 00:00:00.0000, -2.263382554040821E+08, 1.805089688789774E+08, -1.091075093924633E+07,
2461547.500000000, A.D. 2027-May-22 00:00:00.0000, -2.350878962871532E+08, 1.694433386375749E+08, -1.077123898579785E+07,
2461554.500000000, A.D. 2027-May-29 00:00:00.0000, -2.433697882653917E+08, 1.580405266490827E+08, -1.061028321879790E+07,
2461561.500000000, A.D. 2027-Jun-05 00:00:00.0000, -2.511693867005629E+08, 1.463244804250104E+08, -1.042828810186996E+07,
2461568.500000000, A.D. 2027-Jun-12 00:00:00.0000, -2.584737661077763E+08, 1.343198963239000E+08, -1.022571941360243E+07,
2461575.500000000, A.D. 2027-Jun-19 00:00:00.0000, -2.652716614418472E+08, 1.220520769543539E+08, -1.000310076670848E+07,
2461582.500000000, A.D. 2027-Jun-26 00:00:00.0000, -2.715534938042176E+08, 1.095467866919879E+08, -9.761009692787163E+06,
2461589.500000000, A.D. 2027-Jul-03 00:00:00.0000, -2.773113806114879E+08, 9.683010736720915E+07, -9.500073371269062E+06,
2461596.500000000, A.D. 2027-Jul-10 00:00:00.0000, -2.825391306626243E+08, 8.392829608852598E+07, -9.220964076860502E+06,
2461603.500000000, A.D. 2027-Jul-17 00:00:00.0000, -2.872322248134636E+08, 7.086764697927682E+07, -8.924394425817538E+06,
2461610.500000000, A.D. 2027-Jul-24 00:00:00.0000, -2.913877830818443E+08, 5.767435840289952E+07, -8.611112514344241E+06,
2461617.500000000, A.D. 2027-Jul-31 00:00:00.0000, -2.950045189450170E+08, 4.437440734069891E+07, -8.281897039444005E+06,
2461624.500000000, A.D. 2027-Aug-07 00:00:00.0000, -2.980826823522438E+08, 3.099343327103629E+07, -7.937552357960548E+06,
2461631.500000000, A.D. 2027-Aug-14 00:00:00.0000, -3.006239951835331E+08, 1.755663225028524E+07, -7.578903357348783E+06,
2461638.500000000, A.D. 2027-Aug-21 00:00:00.0000, -3.026315800345381E+08, 4.088658543249436E+06, -7.206790528593224E+06,
2461645.500000000, A.D. 2027-Aug-28 00:00:00.0000, -3.041098804093317E+08, -9.386464511762861E+06, -6.822065508260699E+06,
2461652.500000000, A.D. 2027-Sep-04 00:00:00.0000, -3.050645749785911E+08, -2.284542164443872E+07, -6.425586817563656E+06,
2461659.500000000, A.D. 2027-Sep-11 00:00:00.0000, -3.055024887197384E+08, -3.626567142075036E+07, -6.018215757876083E+06,
2461666.500000000, A.D. 2027-Sep-18 00:00:00.0000, -3.054315021506954E+08, -4.962550143388522E+07, -5.600812554445028E+06,
2461673.500000000, A.D. 2027-Sep-25 00:00:00.0000, -3.048604596683000E+08, -6.290407330618049E+07, -5.174232794287004E+06,
2461680.500000000, A.D. 2027-Oct-02 00:00:00.0000, -3.037990780446608E+08, -7.608145792968182E+07, -4.739324176088933E+06,
2461687.500000000, A.D. 2027-Oct-09 00:00:00.0000, -3.022578560744720E+08, -8.913866151426706E+07, -4.296923583441254E+06,
2461694.500000000, A.D. 2027-Oct-16 00:00:00.0000, -3.002479861996214E+08, -1.020576431365426E+08, -3.847854494917914E+06,
2461701.500000000, A.D. 2027-Oct-23 00:00:00.0000, -2.977812686016602E+08, -1.148213244843656E+08, -3.392924751967639E+06,
2461708.500000000, A.D. 2027-Oct-30 00:00:00.0000, -2.948700279978170E+08, -1.274135919108654E+08, -2.932924660121225E+06,
2461715.500000000, A.D. 2027-Nov-06 00:00:00.0000, -2.915270347830805E+08, -1.398192904135314E+08, -2.468625211765990E+06,
2461722.500000000, A.D. 2027-Nov-13 00:00:00.0000, -2.877654328658170E+08, -1.520242123629110E+08, -2.000776403017454E+06,
2461729.500000000, A.D. 2027-Nov-20 00:00:00.0000, -2.835986715561367E+08, -1.640150839039232E+08, -1.530106072857574E+06,
2461736.500000000, A.D. 2027-Nov-27 00:00:00.0000, -2.790404400566969E+08, -1.757795467730967E+08, -1.057319152101308E+06,
2461743.500000000, A.D. 2027-Dec-04 00:00:00.0000, -2.741046066571661E+08, -1.873061352861916E+08, -5.830970420464128E+05,
2461750.500000000, A.D. 2027-Dec-11 00:00:00.0000, -2.688051631838565E+08, -1.985842500881005E+08, -1.080971313219666E+05,
2461757.500000000, A.D. 2027-Dec-18 00:00:00.0000, -2.631561743709191E+08, -2.096041295898437E+08, 3.670475151603222E+05,
2461764.500000000, A.D. 2027-Dec-25 00:00:00.0000, -2.571717318955437E+08, -2.203568196318437E+08, 8.417282997985929E+05,
2461771.500000000, A.D. 2028-Jan-01 00:00:00.0000, -2.508659128892113E+08, -2.308341418427787E+08, 1.315361084518507E+06,
$$EOE